{
    "links": {
        "self": "http://www.neowsapp.com/rest/v1/neo/3799000?api_key=iIulBulltgU6a56xZRHN4H3l9WmuAYTsLGpBGhQ2"
    },
    "id": "3799000",
    "neo_reference_id": "3799000",
    "name": "(2018 CN)",
    "designation": "2018 CN",
    "nasa_jpl_url": "http://ssd.jpl.nasa.gov/sbdb.cgi?sstr=3799000",
    "absolute_magnitude_h": 26.4,
    "estimated_diameter": {
        "kilometers": {
            "estimated_diameter_min": 0.0139493823,
            "estimated_diameter_max": 0.0311917671
        },
        "meters": {
            "estimated_diameter_min": 13.9493822934,
            "estimated_diameter_max": 31.1917670523
        },
        "miles": {
            "estimated_diameter_min": 0.0086677416,
            "estimated_diameter_max": 0.0193816595
        },
        "feet": {
            "estimated_diameter_min": 45.7656914036,
            "estimated_diameter_max": 102.3351970157
        }
    },
    "is_potentially_hazardous_asteroid": false,
    "close_approach_data": [
        {
            "close_approach_date": "1929-01-15",
            "close_approach_date_full": "1929-Jan-15 14:10",
            "epoch_date_close_approach": -1292579400000,
            "relative_velocity": {
                "kilometers_per_second": "18.1784685893",
                "kilometers_per_hour": "65442.486921584",
                "miles_per_hour": "40663.4163874698"
            },
            "miss_distance": {
                "astronomical": "0.0416707382",
                "lunar": "16.2099171598",
                "kilometers": "6233853.676047634",
                "miles": "3873537.0559959892"
            },
            "orbiting_body": "Mars"
        },
        {
            "close_approach_date": "1956-08-21",
            "close_approach_date_full": "1956-Aug-21 13:44",
            "epoch_date_close_approach": -421668960000,
            "relative_velocity": {
                "kilometers_per_second": "28.9486948259",
                "kilometers_per_hour": "104215.3013730751",
                "miles_per_hour": "64755.3354559533"
            },
            "miss_distance": {
                "astronomical": "0.3111961008",
                "lunar": "121.0552832112",
                "kilometers": "46554273.831985296",
                "miles": "28927484.3739212448"
            },
            "orbiting_body": "Earth"
        },
        {
            "close_approach_date": "2018-02-07",
            "close_approach_date_full": "2018-Feb-07 04:06",
            "epoch_date_close_approach": 1517976360000,
            "relative_velocity": {
                "kilometers_per_second": "18.8874695027",
                "kilometers_per_hour": "67994.8902098136",
                "miles_per_hour": "42249.3805306478"
            },
            "miss_distance": {
                "astronomical": "0.004055423",
                "lunar": "1.577559547",
                "kilometers": "606682.64274901",
                "miles": "376975.113635938"
            },
            "orbiting_body": "Moon"
        },
        {
            "close_approach_date": "2018-02-07",
            "close_approach_date_full": "2018-Feb-07 04:35",
            "epoch_date_close_approach": 1517978100000,
            "relative_velocity": {
                "kilometers_per_second": "19.8631236292",
                "kilometers_per_hour": "71507.2450651362",
                "miles_per_hour": "44431.8212461675"
            },
            "miss_distance": {
                "astronomical": "0.0032736488",
                "lunar": "1.2734493832",
                "kilometers": "489730.887608056",
                "miles": "304304.6627649328"
            },
            "orbiting_body": "Earth"
        },
        {
            "close_approach_date": "2023-01-16",
            "close_approach_date_full": "2023-Jan-16 17:58",
            "epoch_date_close_approach": 1673891880000,
            "relative_velocity": {
                "kilometers_per_second": "33.0220523386",
                "kilometers_per_hour": "118879.3884190028",
                "miles_per_hour": "73867.028876241"
            },
            "miss_distance": {
                "astronomical": "0.4339232469",
                "lunar": "168.7961430441",
                "kilometers": "64913993.479724103",
                "miles": "40335685.1577265014"
            },
            "orbiting_body": "Earth"
        }
    ],
    "orbital_data": {
        "orbit_id": "2",
        "orbit_determination_date": "2018-02-07 06:55:04",
        "first_observation_date": "2018-02-05",
        "last_observation_date": "2018-02-07",
        "data_arc_in_days": 2,
        "observations_used": 40,
        "orbit_uncertainty": "7",
        "minimum_orbit_intersection": ".00315203",
        "jupiter_tisserand_invariant": "3.737",
        "epoch_osculation": "2459000.5",
        "eccentricity": ".6616275676710691",
        "semi_major_axis": "1.825247040824722",
        "inclination": "3.549748293679485",
        "ascending_node_longitude": "321.0880046773045",
        "orbital_period": "900.7015422828275",
        "perihelion_distance": ".6176132808050445",
        "perihelion_argument": "263.5426848650211",
        "aphelion_distance": "3.032880800844399",
        "perihelion_time": "2459104.267809829197",
        "mean_anomaly": "318.5252053151468",
        "mean_motion": ".3996884462833051",
        "equinox": "J2000",
        "orbit_class": {
            "orbit_class_type": "APO",
            "orbit_class_description": "Near-Earth asteroid orbits which cross the Earth’s orbit similar to that of 1862 Apollo",
            "orbit_class_range": "a (semi-major axis) > 1.0 AU; q (perihelion) < 1.017 AU"
        }
    },
    "is_sentry_object": false
}